[{"OBJECT_NAME":"STARLINK-33879","OBJECT_ID":"2025-083A","EPOCH":"2026-02-06T19:58:46.759296","MEAN_MOTION":15.27586987,"ECCENTRICITY":0.0002396,"INCLINATION":43.0038,"RA_OF_ASC_NODE":179.8227,"ARG_OF_PERICENTER":275.2199,"MEAN_ANOMALY":84.8379,"EPHEMERIS_TYPE":0,"CLASSIFICATION_TYPE":"U","NORAD_CAT_ID":63634,"ELEMENT_SET_NO":999,"REV_AT_EPOCH":4534,"BSTAR":0.0010746,"MEAN_MOTION_DOT":0.00029433,"MEAN_MOTION_DDOT":0},{"OBJECT_NAME":"STARLINK-33854","OBJECT_ID":"2025-083B","EPOCH":"2026-02-06T20:31:52.645152","MEAN_MOTION":15.27578175,"ECCENTRICITY":0.0001691,"INCLINATION":42.9999,"RA_OF_ASC_NODE":179.137,"ARG_OF_PERICENTER":260.0189,"MEAN_ANOMALY":100.0472,"EPHEMERIS_TYPE":0,"CLASSIFICATION_TYPE":"U","NORAD_CAT_ID":63635,"ELEMENT_SET_NO":999,"REV_AT_EPOCH":4535,"BSTAR":0.0011439,"MEAN_MOTION_DOT":0.00031348,"MEAN_MOTION_DDOT":0},{"OBJECT_NAME":"STARLINK-33864","OBJECT_ID":"2025-083C","EPOCH":"2026-02-06T16:56:00.981888","MEAN_MOTION":15.27589497,"ECCENTRICITY":0.00023189,"INCLINATION":43.007,"RA_OF_ASC_NODE":180.5913,"ARG_OF_PERICENTER":272.3606,"MEAN_ANOMALY":87.6981,"EPHEMERIS_TYPE":0,"CLASSIFICATION_TYPE":"U","NORAD_CAT_ID":63636,"ELEMENT_SET_NO":999,"REV_AT_EPOCH":4535,"BSTAR":0.0014224804,"MEAN_MOTION_DOT":0.00039102,"MEAN_MOTION_DDOT":0},{"OBJECT_NAME":"STARLINK-33832","OBJECT_ID":"2025-083D","EPOCH":"2026-02-06T20:20:46.039776","MEAN_MOTION":15.2760716,"ECCENTRICITY":0.000308,"INCLINATION":43.0047,"RA_OF_ASC_NODE":179.0815,"ARG_OF_PERICENTER":275.1602,"MEAN_ANOMALY":84.8898,"EPHEMERIS_TYPE":0,"CLASSIFICATION_TYPE":"U","NORAD_CAT_ID":63637,"ELEMENT_SET_NO":999,"REV_AT_EPOCH":4535,"BSTAR":0.0018096,"MEAN_MOTION_DOT":0.00049917,"MEAN_MOTION_DDOT":0},{"OBJECT_NAME":"STARLINK-33856","OBJECT_ID":"2025-083E","EPOCH":"2026-02-07T06:00:02.999808","MEAN_MOTION":15.27559712,"ECCENTRICITY":0.0001863,"INCLINATION":43.0004,"RA_OF_ASC_NODE":176.9333,"ARG_OF_PERICENTER":282.3982,"MEAN_ANOMALY":75.8401,"EPHEMERIS_TYPE":0,"CLASSIFICATION_TYPE":"U","NORAD_CAT_ID":63638,"ELEMENT_SET_NO":999,"REV_AT_EPOCH":586,"BSTAR":0.0024417086,"MEAN_MOTION_DOT":0.00067504,"MEAN_MOTION_DDOT":0},{"OBJECT_NAME":"STARLINK-33876","OBJECT_ID":"2025-083F","EPOCH":"2026-02-06T16:15:18.551520","MEAN_MOTION":15.27586143,"ECCENTRICITY":0.00019017,"INCLINATION":42.9979,"RA_OF_ASC_NODE":180.3629,"ARG_OF_PERICENTER":269.2099,"MEAN_ANOMALY":90.8535,"EPHEMERIS_TYPE":0,"CLASSIFICATION_TYPE":"U","NORAD_CAT_ID":63639,"ELEMENT_SET_NO":999,"REV_AT_EPOCH":4532,"BSTAR":0.0010604277,"MEAN_MOTION_DOT":0.0002904,"MEAN_MOTION_DDOT":0},{"OBJECT_NAME":"STARLINK-33859","OBJECT_ID":"2025-083G","EPOCH":"2026-02-06T10:37:32.220192","MEAN_MOTION":15.27596358,"ECCENTRICITY":0.00032245,"INCLINATION":43.0014,"RA_OF_ASC_NODE":182.0603,"ARG_OF_PERICENTER":154.2128,"MEAN_ANOMALY":205.8885,"EPHEMERIS_TYPE":0,"CLASSIFICATION_TYPE":"U","NORAD_CAT_ID":63640,"ELEMENT_SET_NO":999,"REV_AT_EPOCH":4528,"BSTAR":0.00090513997,"MEAN_MOTION_DOT":0.00024743,"MEAN_MOTION_DDOT":0},{"OBJECT_NAME":"STARLINK-33826","OBJECT_ID":"2025-083H","EPOCH":"2026-02-06T20:39:17.207712","MEAN_MOTION":15.27585504,"ECCENTRICITY":0.0001031,"INCLINATION":42.9926,"RA_OF_ASC_NODE":179.1702,"ARG_OF_PERICENTER":175.472,"MEAN_ANOMALY":184.6141,"EPHEMERIS_TYPE":0,"CLASSIFICATION_TYPE":"U","NORAD_CAT_ID":63641,"ELEMENT_SET_NO":999,"REV_AT_EPOCH":4535,"BSTAR":0.0011341,"MEAN_MOTION_DOT":0.00031084,"MEAN_MOTION_DDOT":0},{"OBJECT_NAME":"STARLINK-33836","OBJECT_ID":"2025-083J","EPOCH":"2026-02-06T16:41:12.779520","MEAN_MOTION":15.27590713,"ECCENTRICITY":0.00014035,"INCLINATION":43.0041,"RA_OF_ASC_NODE":180.5111,"ARG_OF_PERICENTER":250.6171,"MEAN_ANOMALY":109.4529,"EPHEMERIS_TYPE":0,"CLASSIFICATION_TYPE":"U","NORAD_CAT_ID":63642,"ELEMENT_SET_NO":999,"REV_AT_EPOCH":4532,"BSTAR":0.0011393114,"MEAN_MOTION_DOT":0.00031232,"MEAN_MOTION_DDOT":0},{"OBJECT_NAME":"STARLINK-33558","OBJECT_ID":"2025-083K","EPOCH":"2026-02-06T17:18:00.649440","MEAN_MOTION":15.27578333,"ECCENTRICITY":0.0001791,"INCLINATION":43.0016,"RA_OF_ASC_NODE":179.8439,"ARG_OF_PERICENTER":273.6052,"MEAN_ANOMALY":86.4594,"EPHEMERIS_TYPE":0,"CLASSIFICATION_TYPE":"U","NORAD_CAT_ID":63643,"ELEMENT_SET_NO":999,"REV_AT_EPOCH":4533,"BSTAR":0.0011928404,"MEAN_MOTION_DOT":0.00032707,"MEAN_MOTION_DDOT":0},{"OBJECT_NAME":"STARLINK-33852","OBJECT_ID":"2025-083L","EPOCH":"2026-02-06T19:47:40.536672","MEAN_MOTION":15.27596374,"ECCENTRICITY":0.0002451,"INCLINATION":43.0039,"RA_OF_ASC_NODE":179.7619,"ARG_OF_PERICENTER":270.7896,"MEAN_ANOMALY":89.2675,"EPHEMERIS_TYPE":0,"CLASSIFICATION_TYPE":"U","NORAD_CAT_ID":63644,"ELEMENT_SET_NO":999,"REV_AT_EPOCH":4537,"BSTAR":0.0015325,"MEAN_MOTION_DOT":0.00042174,"MEAN_MOTION_DDOT":0},{"OBJECT_NAME":"STARLINK-33835","OBJECT_ID":"2025-083M","EPOCH":"2026-02-05T19:56:48.663456","MEAN_MOTION":15.27620007,"ECCENTRICITY":0.00016293,"INCLINATION":42.9989,"RA_OF_ASC_NODE":185.1952,"ARG_OF_PERICENTER":275.726,"MEAN_ANOMALY":84.3406,"EPHEMERIS_TYPE":0,"CLASSIFICATION_TYPE":"U","NORAD_CAT_ID":63645,"ELEMENT_SET_NO":999,"REV_AT_EPOCH":4522,"BSTAR":0.0011840402,"MEAN_MOTION_DOT":0.00032504,"MEAN_MOTION_DDOT":0},{"OBJECT_NAME":"STARLINK-33661","OBJECT_ID":"2025-083N","EPOCH":"2026-02-06T09:43:52.776480","MEAN_MOTION":15.2760357,"ECCENTRICITY":0.0004025,"INCLINATION":42.999,"RA_OF_ASC_NODE":181.7654,"ARG_OF_PERICENTER":287.1988,"MEAN_ANOMALY":72.8423,"EPHEMERIS_TYPE":0,"CLASSIFICATION_TYPE":"U","NORAD_CAT_ID":63646,"ELEMENT_SET_NO":999,"REV_AT_EPOCH":4531,"BSTAR":0.0016490167,"MEAN_MOTION_DOT":0.00045435,"MEAN_MOTION_DDOT":0},{"OBJECT_NAME":"STARLINK-33729","OBJECT_ID":"2025-083P","EPOCH":"2026-02-06T16:48:38.672640","MEAN_MOTION":15.2755804,"ECCENTRICITY":0.00017396,"INCLINATION":43.0017,"RA_OF_ASC_NODE":180.5513,"ARG_OF_PERICENTER":262.3744,"MEAN_ANOMALY":97.6911,"EPHEMERIS_TYPE":0,"CLASSIFICATION_TYPE":"U","NORAD_CAT_ID":63647,"ELEMENT_SET_NO":999,"REV_AT_EPOCH":4532,"BSTAR":0.0012850055,"MEAN_MOTION_DOT":0.00035244,"MEAN_MOTION_DDOT":0},{"OBJECT_NAME":"STARLINK-33717","OBJECT_ID":"2025-083Q","EPOCH":"2026-02-06T20:30:01.298016","MEAN_MOTION":15.27597256,"ECCENTRICITY":0.0002816,"INCLINATION":43.0037,"RA_OF_ASC_NODE":179.1251,"ARG_OF_PERICENTER":287.315,"MEAN_ANOMALY":72.7393,"EPHEMERIS_TYPE":0,"CLASSIFICATION_TYPE":"U","NORAD_CAT_ID":63648,"ELEMENT_SET_NO":999,"REV_AT_EPOCH":4535,"BSTAR":0.0013776,"MEAN_MOTION_DOT":0.00037865,"MEAN_MOTION_DDOT":0},{"OBJECT_NAME":"STARLINK-33684","OBJECT_ID":"2025-083R","EPOCH":"2026-02-07T07:18:00.907488","MEAN_MOTION":15.27603477,"ECCENTRICITY":0.0002186,"INCLINATION":43.0023,"RA_OF_ASC_NODE":176.4786,"ARG_OF_PERICENTER":271.6439,"MEAN_ANOMALY":88.4162,"EPHEMERIS_TYPE":0,"CLASSIFICATION_TYPE":"U","NORAD_CAT_ID":63649,"ELEMENT_SET_NO":999,"REV_AT_EPOCH":4542,"BSTAR":0.0014934013,"MEAN_MOTION_DOT":0.00041093,"MEAN_MOTION_DDOT":0},{"OBJECT_NAME":"STARLINK-33704","OBJECT_ID":"2025-083S","EPOCH":"2026-02-06T09:51:17.846208","MEAN_MOTION":15.27608864,"ECCENTRICITY":0.00011207,"INCLINATION":42.9984,"RA_OF_ASC_NODE":181.8075,"ARG_OF_PERICENTER":266.3971,"MEAN_ANOMALY":93.6753,"EPHEMERIS_TYPE":0,"CLASSIFICATION_TYPE":"U","NORAD_CAT_ID":63650,"ELEMENT_SET_NO":999,"REV_AT_EPOCH":4528,"BSTAR":0.0013825019,"MEAN_MOTION_DOT":0.00038011,"MEAN_MOTION_DDOT":0},{"OBJECT_NAME":"STARLINK-33705","OBJECT_ID":"2025-083T","EPOCH":"2026-02-06T20:44:49.285248","MEAN_MOTION":15.27582008,"ECCENTRICITY":0.000293,"INCLINATION":43.0012,"RA_OF_ASC_NODE":179.1886,"ARG_OF_PERICENTER":269.3737,"MEAN_ANOMALY":90.6779,"EPHEMERIS_TYPE":0,"CLASSIFICATION_TYPE":"U","NORAD_CAT_ID":63651,"ELEMENT_SET_NO":999,"REV_AT_EPOCH":4538,"BSTAR":0.0015895,"MEAN_MOTION_DOT":0.00043743,"MEAN_MOTION_DDOT":0},{"OBJECT_NAME":"STARLINK-33663","OBJECT_ID":"2025-083U","EPOCH":"2026-02-06T20:33:43.835040","MEAN_MOTION":15.27588486,"ECCENTRICITY":1.61e-5,"INCLINATION":42.996,"RA_OF_ASC_NODE":179.1281,"ARG_OF_PERICENTER":257.0061,"MEAN_ANOMALY":103.0773,"EPHEMERIS_TYPE":0,"CLASSIFICATION_TYPE":"U","NORAD_CAT_ID":63652,"ELEMENT_SET_NO":999,"REV_AT_EPOCH":4535,"BSTAR":0.0010805,"MEAN_MOTION_DOT":0.00029598,"MEAN_MOTION_DDOT":0},{"OBJECT_NAME":"STARLINK-33866","OBJECT_ID":"2025-083V","EPOCH":"2026-02-06T16:35:39.437088","MEAN_MOTION":15.27608488,"ECCENTRICITY":0.00026393,"INCLINATION":43.0027,"RA_OF_ASC_NODE":180.4753,"ARG_OF_PERICENTER":273.8676,"MEAN_ANOMALY":86.1874,"EPHEMERIS_TYPE":0,"CLASSIFICATION_TYPE":"U","NORAD_CAT_ID":63653,"ELEMENT_SET_NO":999,"REV_AT_EPOCH":4535,"BSTAR":0.0015758782,"MEAN_MOTION_DOT":0.00043398,"MEAN_MOTION_DDOT":0},{"OBJECT_NAME":"STARLINK-33849","OBJECT_ID":"2025-083W","EPOCH":"2026-02-06T16:31:58.126944","MEAN_MOTION":15.27590191,"ECCENTRICITY":0.00013139,"INCLINATION":42.9937,"RA_OF_ASC_NODE":180.4501,"ARG_OF_PERICENTER":98.7301,"MEAN_ANOMALY":261.3699,"EPHEMERIS_TYPE":0,"CLASSIFICATION_TYPE":"U","NORAD_CAT_ID":63654,"ELEMENT_SET_NO":999,"REV_AT_EPOCH":4532,"BSTAR":0.0014430674,"MEAN_MOTION_DOT":0.00039674,"MEAN_MOTION_DDOT":0},{"OBJECT_NAME":"STARLINK-33873","OBJECT_ID":"2025-083X","EPOCH":"2026-02-05T18:35:36.837888","MEAN_MOTION":15.27597568,"ECCENTRICITY":0.00016471,"INCLINATION":43.0005,"RA_OF_ASC_NODE":185.6346,"ARG_OF_PERICENTER":281.4053,"MEAN_ANOMALY":78.6613,"EPHEMERIS_TYPE":0,"CLASSIFICATION_TYPE":"U","NORAD_CAT_ID":63655,"ELEMENT_SET_NO":999,"REV_AT_EPOCH":4521,"BSTAR":0.0012314428,"MEAN_MOTION_DOT":0.00033798,"MEAN_MOTION_DDOT":0},{"OBJECT_NAME":"STARLINK-33772","OBJECT_ID":"2025-083Y","EPOCH":"2026-02-06T09:53:08.736288","MEAN_MOTION":15.27614644,"ECCENTRICITY":9.651e-5,"INCLINATION":43.0006,"RA_OF_ASC_NODE":181.8149,"ARG_OF_PERICENTER":241.1639,"MEAN_ANOMALY":118.9116,"EPHEMERIS_TYPE":0,"CLASSIFICATION_TYPE":"U","NORAD_CAT_ID":63656,"ELEMENT_SET_NO":999,"REV_AT_EPOCH":4531,"BSTAR":0.0012518738,"MEAN_MOTION_DOT":0.00034384,"MEAN_MOTION_DDOT":0}]
